{
    "links": {
        "self": "http://www.neowsapp.com/rest/v1/neo/3835896?api_key=iIulBulltgU6a56xZRHN4H3l9WmuAYTsLGpBGhQ2"
    },
    "id": "3835896",
    "neo_reference_id": "3835896",
    "name": "(2018 VK)",
    "designation": "2018 VK",
    "nasa_jpl_url": "http://ssd.jpl.nasa.gov/sbdb.cgi?sstr=3835896",
    "absolute_magnitude_h": 24.9,
    "estimated_diameter": {
        "kilometers": {
            "estimated_diameter_min": 0.0278326768,
            "estimated_diameter_max": 0.0622357573
        },
        "meters": {
            "estimated_diameter_min": 27.8326768072,
            "estimated_diameter_max": 62.2357573367
        },
        "miles": {
            "estimated_diameter_min": 0.0172944182,
            "estimated_diameter_max": 0.0386714948
        },
        "feet": {
            "estimated_diameter_min": 91.3145593761,
            "estimated_diameter_max": 204.1855621004
        }
    },
    "is_potentially_hazardous_asteroid": false,
    "close_approach_data": [
        {
            "close_approach_date": "2018-09-16",
            "close_approach_date_full": "2018-Sep-16 05:52",
            "epoch_date_close_approach": 1537077120000,
            "relative_velocity": {
                "kilometers_per_second": "6.9188963249",
                "kilometers_per_hour": "24908.0267695602",
                "miles_per_hour": "15476.8791891192"
            },
            "miss_distance": {
                "astronomical": "0.1061869524",
                "lunar": "41.3067244836",
                "kilometers": "15885341.900831388",
                "miles": "9870693.7470256344"
            },
            "orbiting_body": "Venus"
        },
        {
            "close_approach_date": "2018-10-29",
            "close_approach_date_full": "2018-Oct-29 20:08",
            "epoch_date_close_approach": 1540843680000,
            "relative_velocity": {
                "kilometers_per_second": "14.1205993872",
                "kilometers_per_hour": "50834.1577940255",
                "miles_per_hour": "31586.3687692932"
            },
            "miss_distance": {
                "astronomical": "0.0198443692",
                "lunar": "7.7194596188",
                "kilometers": "2968675.363813604",
                "miles": "1844649.3335475752"
            },
            "orbiting_body": "Earth"
        }
    ],
    "orbital_data": {
        "orbit_id": "6",
        "orbit_determination_date": "2019-01-04 06:55:53",
        "first_observation_date": "2018-11-01",
        "last_observation_date": "2018-11-12",
        "data_arc_in_days": 11,
        "observations_used": 52,
        "orbit_uncertainty": "8",
        "minimum_orbit_intersection": ".00412597",
        "jupiter_tisserand_invariant": "3.830",
        "epoch_osculation": "2458428.5",
        "eccentricity": ".5503585976690158",
        "semi_major_axis": "1.831540592446427",
        "inclination": "2.933655423636435",
        "ascending_node_longitude": "29.74475507733495",
        "orbital_period": "905.3640579380863",
        "perihelion_distance": ".8235364804137328",
        "perihelion_argument": "305.83958674",
        "aphelion_distance": "2.83954470447912",
        "perihelion_time": "2458379.940357006557",
        "mean_anomaly": "19.30877565147937",
        "mean_motion": ".3976300990121907",
        "equinox": "J2000",
        "orbit_class": {
            "orbit_class_type": "APO",
            "orbit_class_description": "Near-Earth asteroid orbits which cross the Earth’s orbit similar to that of 1862 Apollo",
            "orbit_class_range": "a (semi-major axis) > 1.0 AU; q (perihelion) < 1.017 AU"
        }
    },
    "is_sentry_object": false
}